HIMAWARI-8              
1 40267U 14060A   24115.60932625 -.00000261  00000+0  00000+0 0  9994
2 40267   0.0415 132.5485 0001083 267.8734 172.7280  1.00272806 34907
